CUTE-1 (CO-55)          
1 27844U 03031E   21237.55739914  .00000051  00000-0  42470-4 0  9997
2 27844  98.6810 244.7222 0008825 235.1009 124.9340 14.22327588941802
CUBESAT XI-IV (CO-57)   
1 27848U 03031J   21237.50081263  .00000038  00000-0  36944-4 0  9997
2 27848  98.6865 245.2268 0008599 250.4038 109.6211 14.21902484941622
CUBESAT XI-V            
1 28895U 05043F   21237.32263192  .00000152  00000-0  37938-4 0  9999
2 28895  98.0679   9.0910 0016544 358.4189   1.6958 14.63947201844080
CUTE-1.7+APD II (CO-65) 
1 32785U 08021C   21237.49327270  .00000363  00000-0  44341-4 0  9997
2 32785  97.6168 213.6792 0014086 129.8902 230.3557 14.88777646722446
AAUSAT-II               
1 32788U 08021F   21237.53242326  .00001264  00000-0  11833-3 0  9993
2 32788  97.5088 229.3090 0012914  44.5911 315.6348 14.95704916724181
DELFI-C3 (DO-64)        
1 32789U 08021G   21237.57060857  .00002317  00000-0  14914-3 0  9998
2 32789  97.3724 270.2705 0009863 263.1913  96.8194 15.09284512727254
SEEDS II (CO-66)        
1 32791U 08021J   21237.46531325  .00000384  00000-0  43660-4 0  9995
2 32791  97.5762 219.4938 0014840  95.5819 264.7093 14.91486473723066
SWISSCUBE               
1 35932U 09051B   21237.53126306  .00000152  00000-0  45076-4 0  9992
2 35932  98.5990  79.7109 0006512 231.0666 128.9951 14.56568009633017
BEESAT-1                
1 35933U 09051C   21237.56297542  .00000124  00000-0  38797-4 0  9998
2 35933  98.5948  81.5363 0004601 244.8409 115.2311 14.56621680633090
ITUPSAT1                
1 35935U 09051E   21237.53960789  .00000103  00000-0  34608-4 0  9991
2 35935  98.6050  81.6362 0006903 247.8743 112.1721 14.55751408632820
TISAT 1                 
1 36799U 10035E   21237.47102260  .00000523  00000-0  57881-4 0  9993
2 36799  98.2051  71.0820 0011951 354.2028   5.9049 14.91822279603629
M-CUBED & EXP-1 PRIME   
1 37855U 11061F   21237.49752885  .00001465  00000-0  77261-4 0  9993
2 37855 101.7149 196.7315 0165534 225.1842 133.5816 15.08033897536581
AEROCUBE 4.5A           
1 38767U 12048K   21237.58880586  .00000508  00000-0  52808-4 0  9999
2 38767  64.6662 318.2611 0161539 345.3466  14.2989 14.92915991106595
AEROCUBE 4.5B           
1 38768U 12048L   21237.57029127  .00001188  00000-0  95358-4 0  9997
2 38768  64.6650 278.9237 0153315 339.9925  19.5216 14.96827801106835
STRAND-1                
1 39090U 13009E   21237.56689351  .00000035  00000-0  27171-4 0  9992
2 39090  98.4239  78.1228 0010356  74.6330 285.6000 14.35178266444954
SOMP                    
1 39134U 13015E   21237.53401502  .00002177  00000-0  10092-3 0  9997
2 39134  64.8626 307.7573 0015532 318.6033  41.3917 15.22923764461733
BEESAT-3                
1 39135U 13015F   21237.54947950  .00001862  00000-0  96183-4 0  9997
2 39135  64.8676 338.0459 0012239 339.5304  20.5331 15.19643395461108
BEESAT-2                
1 39136U 13015G   21237.57715499  .00001885  00000-0  98920-4 0  9998
2 39136  64.8756 344.6387 0018973 242.7715 117.1479 15.18979096460938
NEE-01 PEGASO           
1 39151U 13018B   21237.23348312  .00000235  00000-0  37644-4 0  9991
2 39151  97.9826 339.3016 0018080 132.4463 227.8281 14.80390177449846
ESTCUBE 1               
1 39161U 13021C   21237.45601012  .00000156  00000-0  32311-4 0  9997
2 39161  97.9360 317.0552 0008479 295.4061  64.6269 14.72517090445905
POPACS 1                
1 39268U 13055D   21237.33366448  .00010347  00000-0  27465-3 0  9996
2 39268  81.0006 196.0966 0599961   9.7988 351.4297 14.43544184410499
POPACS 2                
1 39269U 13055E   21237.45169053  .00002813  00000-0  77651-4 0  9995
2 39269  81.0102 244.5741 0667537 135.2464 230.4622 14.28152680407871
POPACS 3                
1 39270U 13055F   21237.43287929  .00001778  00000-0  54838-4 0  9999
2 39270  81.0131 272.5583 0701891 214.8697 140.4555 14.18654286386626
ZACUBE-1 (TSHEPISOSAT)  
1 39417U 13066B   21237.47429465  .00000341  00000-0  48783-4 0  9998
2 39417  97.5982 218.2453 0057137 295.6855  63.8465 14.81573289419299
WNISAT-1                
1 39423U 13066H   21237.52210692  .00000054  00000-0  20649-4 0  9993
2 39423  97.7851 135.2041 0175019 342.1933  17.3191 14.53243154411475
TRITON-1                
1 39427U 13066M   21237.41938571  .00000243  00000-0  46120-4 0  9990
2 39427  97.7783 181.8280 0114282 130.1247 231.0041 14.68284595415331
DELFI-N3XT              
1 39428U 13066N   21237.39606991  .00000360  00000-0  64260-4 0  9991
2 39428  97.7825 180.2902 0120287 143.1130 217.8426 14.68074952415085
GOMX-1                  
1 39430U 13066Q   21237.63153910  .00000160  00000-0  38332-4 0  9998
2 39430  97.8111 156.7251 0148893 257.0507 101.4030 14.59659323413132
CUBEBUG-2 (LO-74)       
1 39440U 13066AA  21237.45187859  .00000385  00000-0  59852-4 0  9997
2 39440  97.6821 203.4138 0080233  12.7839 347.5380 14.76294167416606
NEE-02 KRYSAOR          
1 39441U 13066AB  21237.42800937  .00000269  00000-0  44952-4 0  9990
2 39441  97.6918 200.7052 0082131  24.2665 336.2379 14.75219257416387
FUNCUBE-1 (AO-73)       
1 39444U 13066AE  21237.48340433  .00000408  00000-0  55969-4 0  9994
2 39444  97.5885 220.6301 0056033 285.3868  74.1160 14.82493204417669
UWE-3                   
1 39446U 13066AG  21237.37368842  .00000372  00000-0  55522-4 0  9993
2 39446  97.6427 210.1969 0069025 335.8703  23.9280 14.78837095416694
AEROCUBE 5A             
1 39465U 13072D   21237.38676461  .00005071  00000-0  40218-3 0  9997
2 39465 120.4918 301.2579 0242491 332.7361  26.1146 14.82253206105568
AEROCUBE 5B             
1 39466U 13072E   21237.34534073  .00007598  00000-0  47798-3 0  9992
2 39466 120.4705   2.9497 0211017 346.6060  12.9464 14.93861760106229
BRITE-CA1 (TORONTO)     
1 40020U 14033L   21237.43785838  .00000080  00000-0  21684-4 0  9991
2 40020  97.7486  47.1214 0088411 127.2248 233.7066 14.66760971384263
DUCHIFAT-1              
1 40021U 14033M   21237.37193336  .00000687  00000-0  74577-4 0  9993
2 40021  97.9746 178.3097 0011502 301.8393  58.1705 14.91433044390553
NANOSATC-BR1            
1 40024U 14033Q   21237.31241667  .00000588  00000-0  66092-4 0  9994
2 40024  97.9522 173.0146 0010995 308.4593  51.5638 14.90518143389851
QB50P1                  
1 40025U 14033R   21237.34462121  .00000451  00000-0  53345-4 0  9994
2 40025  97.9328 168.2175 0011388 317.7708  42.2631 14.89508147389673
QB50P2                  
1 40032U 14033Y   21237.53497061  .00000425  00000-0  51134-4 0  9999
2 40032  97.9155 164.7753 0010744 314.6323  45.4017 14.89011610389572
PERSEUS-M2              
1 40037U 14033AD  21237.53355450  .00000142  00000-0  22159-4 0  9990
2 40037  97.8868 156.6720 0013726 334.4571  25.5965 14.86701204389156
PERSEUS-M1              
1 40039U 14033AF  21237.58656695  .00000137  00000-0  21841-4 0  9993
2 40039  97.8801 154.9683 0013548 332.9300  27.1208 14.86320828389055
POLYITAN-1              
1 40042U 14033AJ  21237.40497518  .00000478  00000-0  56383-4 0  9992
2 40042  97.9423 169.1464 0013425 307.7997  52.2004 14.89327285389578
TIGRISAT                
1 40043U 14033AK  21237.53648355  .00000165  00000-0  31329-4 0  9990
2 40043  97.6690  77.6974 0060675  35.8484 324.6774 14.74571087386011
AEROCUBE 6A             
1 40045U 14033AM  21237.57127393  .00000231  00000-0  39982-4 0  9997
2 40045  97.6899  85.3163 0058544  25.3045 335.1013 14.75859324386139
AEROCUBE 6B             
1 40046U 14033AN  21237.57662806  .00000374  00000-0  60123-4 0  9990
2 40046  97.6796  84.0742 0057489  24.1638 336.2249 14.75917806386130
UKUBE-1                 
1 40074U 14037F   21237.53096258  .00000314  00000-0  44227-4 0  9994
2 40074  98.4227  97.1977 0004473 147.7116 212.4374 14.84610300386157
BRITE-PL2 (HEWELIUSZ)   
1 40119U 14049B   21237.50948223  .00000208  00000-0  30905-4 0  9992
2 40119  97.8889 331.2751 0018541 127.6974 232.5925 14.84687695380099
FIREBIRD 4              
1 40378U 15003C   21237.39309542  .00002623  00000-0  97082-4 0  9994
2 40378  99.1094  33.2803 0115454 301.8422  57.1612 15.22958394363287
GRIFEX                  
1 40379U 15003D   21237.33885371  .00001521  00000-0  64491-4 0  9992
2 40379  99.1051  21.9285 0126880 336.3179  23.2241 15.18433304362630
CP10 (EXOCUBE)          
1 40380U 15003E   21237.37710874  .00001307  00000-0  59058-4 0  9998
2 40380  99.1059  16.1149 0133052 355.9918   4.0232 15.16052490362258
AEROCUBE 8A             
1 40659U 15025J   21236.99581541  .00089770  13775-4  28291-3 0  9996
2 40659  55.0023  51.9588 0038291 243.0307 116.6831 15.90118767111597
AEROCUBE 8B             
1 40660U 15025K   21237.44096969  .00133387  17603-4  36045-3 0  9998
2 40660  54.9980  45.0654 0034934 249.8030 109.9264 15.93004157111713
TIANWANG 1A (TW-1A)     
1 40928U 15051D   21237.52994775  .00004924  00000-0  10037-3 0  9991
2 40928  97.0739 260.7944 0010634  49.8787 103.5199 15.46625297332361
EXACTVIEW 9             
1 40936U 15052G   21237.52704905  .00000848  00000-0  29224-4 0  9995
2 40936   6.0030 124.7234 0010966 285.5852  74.3066 14.76729423319399
AEROCUBE 5C             
1 40965U 15058B   21237.45567847  .00000278  00000-0  47752-4 0  9990
2 40965  64.7755 268.9892 0209101 289.7619  68.1043 14.74812725105301
AEROCUBE 7              
1 40966U 15058C   21237.54203963  .00000383  00000-0  58375-4 0  9997
2 40966  64.7754 266.5334 0207895 289.3913  68.4824 14.75179176105304
ATHENOXAT 1             
1 41168U 15077C   21237.34012731  .00002709  00000-0  10126-3 0  9997
2 41168  14.9860 114.4222 0010686  55.0787 274.6993 15.15972625315247
GALASSIA                
1 41170U 15077E   21237.25496230  .00002831  00000-0  10665-3 0  9994
2 41170  14.9887 105.6192 0011949  83.2058 276.9622 15.16157887315154
VELOX-II                
1 41171U 15077F   21237.14836349  .00002084  00000-0  77821-4 0  9990
2 41171  14.9905 166.6396 0008527 306.9140  53.0399 15.12726108314646
